start=new Date('2022-11-27T00:00:00.000Z').valueOf();
sats=[{"SEMIMAJOR_AXIS":"6751.052","OBJECT_TYPE":"PAYLOAD","DECAY_DATE":null,"MEAN_MOTION":"15.65112720","TIME_SYSTEM":"UTC","INCLINATION":"53.2148","CENTER_NAME":"EARTH","OBJECT_ID":"2022-136G","RA_OF_ASC_NODE":"324.4794","RCS_SIZE":"LARGE","BSTAR":"0.00071929000000","EPHEMERIS_TYPE":"0","EPOCH":"2022-11-26T22:00:00.999936","TLE_LINE1":"1 54057U 22136G   22330.91667824  .00072384  00000-0  71929-3 0  9993","MEAN_MOTION_DOT":"0.00072384","ARG_OF_PERICENTER":"78.6417","OBJECT_NAME":"STARLINK-5216","REV_AT_EPOCH":"130","TLE_LINE2":"2 54057  53.2148 324.4794 0003788  78.6417 345.4740 15.65112720  1309","ECCENTRICITY":"0.00037880","ELEMENT_SET_NO":"999","PERIAPSIS":"370.359","REF_FRAME":"TEME","MEAN_MOTION_DDOT":"0.0000000000000","FILE":"3671048","LAUNCH_DATE":"2022-10-20","CLASSIFICATION_TYPE":"U","GP_ID":"218895144","COUNTRY_CODE":"US","MEAN_ANOMALY":"345.4740","APOAPSIS":"375.474","PERIOD":"92.006","MEAN_ELEMENT_THEORY":"SGP4","NORAD_CAT_ID":"54057","SITE":"AFETR"},{"REV_AT_EPOCH":"130","OBJECT_NAME":"STARLINK-5167","ARG_OF_PERICENTER":"38.6504","MEAN_MOTION_DOT":"-0.01209415","PERIAPSIS":"466.745","REF_FRAME":"TEME","MEAN_MOTION_DDOT":"0.0000000000000","ECCENTRICITY":"0.00018430","ELEMENT_SET_NO":"999","TLE_LINE2":"2 54058  53.2167 326.3907 0001843  38.6504 148.6534 15.32618152  1309","EPOCH":"2022-11-26T22:00:00.999936","TLE_LINE1":"1 54058U 22136H   22330.91667824 -.01209415  00000-0 -41762-1 0  9994","SITE":"AFETR","NORAD_CAT_ID":"54058","COUNTRY_CODE":"US","GP_ID":"218895674","CLASSIFICATION_TYPE":"U","LAUNCH_DATE":"2022-10-20","FILE":"3671048","PERIOD":"93.957","APOAPSIS":"469.268","MEAN_ELEMENT_THEORY":"SGP4","MEAN_ANOMALY":"148.6534","OBJECT_TYPE":"PAYLOAD","SEMIMAJOR_AXIS":"6846.141","TIME_SYSTEM":"UTC","MEAN_MOTION":"15.32618152","DECAY_DATE":null,"RCS_SIZE":"LARGE","RA_OF_ASC_NODE":"326.3907","EPHEMERIS_TYPE":"0","BSTAR":"-0.04176200000000","INCLINATION":"53.2167","OBJECT_ID":"2022-136H","CENTER_NAME":"EARTH"},{"OBJECT_TYPE":"PAYLOAD","SEMIMAJOR_AXIS":"6847.542","TIME_SYSTEM":"UTC","MEAN_MOTION":"15.32147831","DECAY_DATE":null,"INCLINATION":"53.2167","OBJECT_ID":"2022-136J","CENTER_NAME":"EARTH","RCS_SIZE":"LARGE","RA_OF_ASC_NODE":"326.4110","EPHEMERIS_TYPE":"0","BSTAR":"-0.03434700000000","EPOCH":"2022-11-26T22:00:00.999936","TLE_LINE1":"1 54059U 22136J   22330.91667824 -.00997309  00000-0 -34347-1 0  9991","REV_AT_EPOCH":"130","OBJECT_NAME":"STARLINK-5173","ARG_OF_PERICENTER":"72.0567","MEAN_MOTION_DOT":"-0.00997309","PERIAPSIS":"468.417","MEAN_MOTION_DDOT":"0.0000000000000","REF_FRAME":"TEME","ECCENTRICITY":"0.00014470","ELEMENT_SET_NO":"999","TLE_LINE2":"2 54059  53.2167 326.4110 0001447  72.0567 105.7491 15.32147831  1305","COUNTRY_CODE":"US","GP_ID":"218895850","CLASSIFICATION_TYPE":"U","LAUNCH_DATE":"2022-10-20","FILE":"3671048","PERIOD":"93.986","APOAPSIS":"470.398","MEAN_ELEMENT_THEORY":"SGP4","MEAN_ANOMALY":"105.7491","SITE":"AFETR","NORAD_CAT_ID":"54059"},{"OBJECT_NAME":"STARLINK-5169","REV_AT_EPOCH":"130","MEAN_MOTION_DOT":"-0.00000322","ARG_OF_PERICENTER":"12.2981","REF_FRAME":"TEME","PERIAPSIS":"347.721","MEAN_MOTION_DDOT":"0.0000000000000","TLE_LINE2":"2 54060  53.2152 322.4836 0003105  12.2981 306.7333 15.73182420  1307","ELEMENT_SET_NO":"999","ECCENTRICITY":"0.00031050","EPOCH":"2022-11-26T22:00:00.999936","TLE_LINE1":"1 54060U 22136K   22330.91667824 -.00000322  00000-0  21469-5 0  9997","NORAD_CAT_ID":"54060","SITE":"AFETR","CLASSIFICATION_TYPE":"U","GP_ID":"218896377","COUNTRY_CODE":"US","FILE":"3671048","LAUNCH_DATE":"2022-10-20","MEAN_ELEMENT_THEORY":"SGP4","APOAPSIS":"351.899","PERIOD":"91.534","MEAN_ANOMALY":"306.7333","OBJECT_TYPE":"PAYLOAD","SEMIMAJOR_AXIS":"6727.945","MEAN_MOTION":"15.73182420","TIME_SYSTEM":"UTC","DECAY_DATE":null,"RA_OF_ASC_NODE":"322.4836","RCS_SIZE":"LARGE","BSTAR":"0.00000214690000","EPHEMERIS_TYPE":"0","INCLINATION":"53.2152","OBJECT_ID":"2022-136K","CENTER_NAME":"EARTH"},{"FILE":"3671048","LAUNCH_DATE":"2022-10-20","CLASSIFICATION_TYPE":"U","COUNTRY_CODE":"US","GP_ID":"218895498","MEAN_ANOMALY":"275.9173","PERIOD":"91.432","APOAPSIS":"345.741","MEAN_ELEMENT_THEORY":"SGP4","NORAD_CAT_ID":"54061","SITE":"AFETR","EPOCH":"2022-11-26T22:00:00.999936","TLE_LINE1":"1 54061U 22136L   22330.91667824 -.00413388  00000-0 -28626-2 0  9998","MEAN_MOTION_DOT":"-0.00413388","ARG_OF_PERICENTER":"41.2447","OBJECT_NAME":"STARLINK-5209","REV_AT_EPOCH":"130","TLE_LINE2":"2 54061  53.2167 321.0322 0001425  41.2447 275.9173 15.74947475  1300","ELEMENT_SET_NO":"999","ECCENTRICITY":"0.00014250","MEAN_MOTION_DDOT":"0.0000000000000","PERIAPSIS":"343.825","REF_FRAME":"TEME","INCLINATION":"53.2167","CENTER_NAME":"EARTH","OBJECT_ID":"2022-136L","RA_OF_ASC_NODE":"321.0322","RCS_SIZE":"LARGE","BSTAR":"-0.00286260000000","EPHEMERIS_TYPE":"0","SEMIMAJOR_AXIS":"6722.918","OBJECT_TYPE":"PAYLOAD","DECAY_DATE":null,"MEAN_MOTION":"15.74947475","TIME_SYSTEM":"UTC"},{"PERIOD":"93.938","APOAPSIS":"468.002","MEAN_ELEMENT_THEORY":"SGP4","MEAN_ANOMALY":"93.1980","COUNTRY_CODE":"US","GP_ID":"218895321","CLASSIFICATION_TYPE":"U","FILE":"3671048","LAUNCH_DATE":"2022-10-20","SITE":"AFETR","NORAD_CAT_ID":"54062","TLE_LINE1":"1 54062U 22136M   22330.91667824 -.01208190  00000-0 -41318-1 0  9995","EPOCH":"2022-11-26T22:00:00.999936","PERIAPSIS":"466.189","REF_FRAME":"TEME","MEAN_MOTION_DDOT":"0.0000000000000","ELEMENT_SET_NO":"999","ECCENTRICITY":"0.00013240","TLE_LINE2":"2 54062  53.2168 326.3722 0001324 103.8423  93.1980 15.32924160  1307","REV_AT_EPOCH":"130","OBJECT_NAME":"STARLINK-5170","ARG_OF_PERICENTER":"103.8423","MEAN_MOTION_DOT":"-0.01208190","OBJECT_ID":"2022-136M","CENTER_NAME":"EARTH","INCLINATION":"53.2168","EPHEMERIS_TYPE":"0","BSTAR":"-0.04131800000000","RCS_SIZE":"LARGE","RA_OF_ASC_NODE":"326.3722","TIME_SYSTEM":"UTC","MEAN_MOTION":"15.32924160","DECAY_DATE":null,"OBJECT_TYPE":"PAYLOAD","SEMIMAJOR_AXIS":"6845.230"},{"BSTAR":"-0.04111600000000","EPHEMERIS_TYPE":"0","RA_OF_ASC_NODE":"326.3538","RCS_SIZE":"LARGE","CENTER_NAME":"EARTH","OBJECT_ID":"2022-136N","INCLINATION":"53.2167","DECAY_DATE":null,"MEAN_MOTION":"15.33244045","TIME_SYSTEM":"UTC","SEMIMAJOR_AXIS":"6844.278","OBJECT_TYPE":"PAYLOAD","NORAD_CAT_ID":"54063","SITE":"AFETR","MEAN_ANOMALY":"164.8625","PERIOD":"93.919","APOAPSIS":"467.331","MEAN_ELEMENT_THEORY":"SGP4","FILE":"3671048","LAUNCH_DATE":"2022-10-20","CLASSIFICATION_TYPE":"U","GP_ID":"218896202","COUNTRY_CODE":"US","TLE_LINE2":"2 54063  53.2167 326.3538 0001736  41.4844 164.8625 15.33244045  1303","ELEMENT_SET_NO":"999","ECCENTRICITY":"0.00017360","PERIAPSIS":"464.955","MEAN_MOTION_DDOT":"0.0000000000000","REF_FRAME":"TEME","MEAN_MOTION_DOT":"-0.01214084","ARG_OF_PERICENTER":"41.4844","OBJECT_NAME":"STARLINK-5225","REV_AT_EPOCH":"130","TLE_LINE1":"1 54063U 22136N   22330.91667824 -.01214084  00000-0 -41116-1 0  9991","EPOCH":"2022-11-26T22:00:00.999936"},{"FILE":"3671048","LAUNCH_DATE":"2022-10-20","COUNTRY_CODE":"US","GP_ID":"218896026","CLASSIFICATION_TYPE":"U","MEAN_ANOMALY":"315.8575","MEAN_ELEMENT_THEORY":"SGP4","APOAPSIS":"352.533","PERIOD":"91.534","SITE":"AFETR","NORAD_CAT_ID":"54064","EPOCH":"2022-11-26T22:00:00.999936","TLE_LINE1":"1 54064U 22136P   22330.91667824 -.00018375  00000-0 -12675-3 0  9996","ARG_OF_PERICENTER":"1.9006","MEAN_MOTION_DOT":"-0.00018375","REV_AT_EPOCH":"130","OBJECT_NAME":"STARLINK-5172","ELEMENT_SET_NO":"999","ECCENTRICITY":"0.00040750","TLE_LINE2":"2 54064  53.2151 323.2253 0004075   1.9006 315.8575 15.73189008  1300","PERIAPSIS":"347.050","REF_FRAME":"TEME","MEAN_MOTION_DDOT":"0.0000000000000","INCLINATION":"53.2151","CENTER_NAME":"EARTH","OBJECT_ID":"2022-136P","RCS_SIZE":"LARGE","RA_OF_ASC_NODE":"323.2253","EPHEMERIS_TYPE":"0","BSTAR":"-0.00012675000000","SEMIMAJOR_AXIS":"6727.927","OBJECT_TYPE":"PAYLOAD","DECAY_DATE":null,"TIME_SYSTEM":"UTC","MEAN_MOTION":"15.73189008"},{"INCLINATION":"53.2168","OBJECT_ID":"2022-136Q","CENTER_NAME":"EARTH","RA_OF_ASC_NODE":"326.3181","RCS_SIZE":"LARGE","BSTAR":"-0.04038500000000","EPHEMERIS_TYPE":"0","OBJECT_TYPE":"PAYLOAD","SEMIMAJOR_AXIS":"6842.390","MEAN_MOTION":"15.33878583","TIME_SYSTEM":"UTC","DECAY_DATE":null,"CLASSIFICATION_TYPE":"U","GP_ID":"218895145","COUNTRY_CODE":"US","LAUNCH_DATE":"2022-10-20","FILE":"3671048","APOAPSIS":"465.491","MEAN_ELEMENT_THEORY":"SGP4","PERIOD":"93.880","MEAN_ANOMALY":"184.7579","NORAD_CAT_ID":"54065","SITE":"AFETR","EPOCH":"2022-11-26T22:00:00.999936","TLE_LINE1":"1 54065U 22136Q   22330.91667824 -.01216615  00000-0 -40385-1 0  9992","OBJECT_NAME":"STARLINK-5187","REV_AT_EPOCH":"130","MEAN_MOTION_DOT":"-0.01216615","ARG_OF_PERICENTER":"39.7550","PERIAPSIS":"463.020","MEAN_MOTION_DDOT":"0.0000000000000","REF_FRAME":"TEME","TLE_LINE2":"2 54065  53.2168 326.3181 0001806  39.7550 184.7579 15.33878583  1301","ELEMENT_SET_NO":"999","ECCENTRICITY":"0.00018060"},{"SEMIMAJOR_AXIS":"6843.343","OBJECT_TYPE":"PAYLOAD","DECAY_DATE":null,"TIME_SYSTEM":"UTC","MEAN_MOTION":"15.33558409","RCS_SIZE":"LARGE","RA_OF_ASC_NODE":"326.3355","EPHEMERIS_TYPE":"0","BSTAR":"-0.04062400000000","INCLINATION":"53.2168","CENTER_NAME":"EARTH","OBJECT_ID":"2022-136R","ARG_OF_PERICENTER":"43.2545","MEAN_MOTION_DOT":"-0.01211831","REV_AT_EPOCH":"130","OBJECT_NAME":"STARLINK-5151","ELEMENT_SET_NO":"999","ECCENTRICITY":"0.00016880","TLE_LINE2":"2 54066  53.2168 326.3355 0001688  43.2545 172.2469 15.33558409  1309","REF_FRAME":"TEME","PERIAPSIS":"464.053","MEAN_MOTION_DDOT":"0.0000000000000","EPOCH":"2022-11-26T22:00:00.999936","TLE_LINE1":"1 54066U 22136R   22330.91667824 -.01211831  00000-0 -40624-1 0  9994","SITE":"AFETR","NORAD_CAT_ID":"54066","FILE":"3671048","LAUNCH_DATE":"2022-10-20","GP_ID":"218895675","COUNTRY_CODE":"US","CLASSIFICATION_TYPE":"U","MEAN_ANOMALY":"172.2469","APOAPSIS":"466.363","MEAN_ELEMENT_THEORY":"SGP4","PERIOD":"93.899"}];
